{
  "type": "FeatureCollection",
  "features": [
    {
      "type": "Feature",
      "properties": {
        "norad_id": 31788,
        "name": "FENGYUN 1C DEB",
        "group": "fengyun-1c-debris",
        "lat": -63.268170461691376,
        "lon": -61.94709875204559,
        "alt_km": 1440.3584031479459,
        "timestamp": "2025-12-24T09:46:31.288261+00:00",
        "meta_object_name": "FENGYUN 1C DEB",
        "meta_object_id": "1999-025CGP",
        "meta_epoch": "2025-12-23T04:51:48.153024",
        "meta_mean_motion": 13.45137886,
        "meta_eccentricity": 0.0461523,
        "meta_inclination": 102.5557,
        "meta_ra_of_asc_node": 142.808,
        "meta_arg_of_pericenter": 63.5911,
        "meta_mean_anomaly": 112.1167,
        "meta_ephemeris_type": 0,
        "meta_classification_type": "U",
        "meta_norad_cat_id": 31788,
        "meta_element_set_no": 999,
        "meta_rev_at_epoch": 90745,
        "meta_bstar": 0.0021167501,
        "meta_mean_motion_dot": 2.316e-05,
        "meta_mean_motion_ddot": 0,
        "tle_line1": "1 31788U 99025CGP 25357.20264066  .00002316  00000+0  21168-2 0  9991",
        "tle_line2": "2 31788 102.5557 142.8080 0461523  63.5911 112.1167 13.45137886907453"
      },
      "geometry": {
        "type": "Point",
        "coordinates": [
          -61.94709875204559,
          -63.268170461691376
        ]
      }
    },
    {
      "type": "Feature",
      "properties": {
        "norad_id": 31805,
        "name": "FENGYUN 1C DEB",
        "group": "fengyun-1c-debris",
        "lat": 2.274235383704006,
        "lon": -18.649768904595234,
        "alt_km": 1055.0387301457895,
        "timestamp": "2025-12-24T09:46:31.288273+00:00",
        "meta_object_name": "FENGYUN 1C DEB",
        "meta_object_id": "1999-025CGT",
        "meta_epoch": "2025-12-22T18:23:36.095136",
        "meta_mean_motion": 14.02886852,
        "meta_eccentricity": 0.04473511,
        "meta_inclination": 98.3624,
        "meta_ra_of_asc_node": 340.1713,
        "meta_arg_of_pericenter": 130.5127,
        "meta_mean_anomaly": 233.5923,
        "meta_ephemeris_type": 0,
        "meta_classification_type": "U",
        "meta_norad_cat_id": 31805,
        "meta_element_set_no": 999,
        "meta_rev_at_epoch": 62504,
        "meta_bstar": 0.0013975945,
        "meta_mean_motion_dot": 5.257e-05,
        "meta_mean_motion_ddot": 0,
        "tle_line1": "1 31805U 99025CGT 25356.76638999  .00005257  00000+0  13976-2 0  9996",
        "tle_line2": "2 31805  98.3624 340.1713 0447351 130.5127 233.5923 14.02886852625041"
      },
      "geometry": {
        "type": "Point",
        "coordinates": [
          -18.649768904595234,
          2.274235383704006
        ]
      }
    },
    {
      "type": "Feature",
      "properties": {
        "norad_id": 31807,
        "name": "FENGYUN 1C DEB",
        "group": "fengyun-1c-debris",
        "lat": -48.98697670411066,
        "lon": -60.29653990849259,
        "alt_km": 740.4886015556494,
        "timestamp": "2025-12-24T09:46:31.288284+00:00",
        "meta_object_name": "FENGYUN 1C DEB",
        "meta_object_id": "1999-025CGV",
        "meta_epoch": "2025-12-23T02:57:48.388608",
        "meta_mean_motion": 14.52113828,
        "meta_eccentricity": 0.01056707,
        "meta_inclination": 99.0777,
        "meta_ra_of_asc_node": 128.9097,
        "meta_arg_of_pericenter": 131.5185,
        "meta_mean_anomaly": 229.5134,
        "meta_ephemeris_type": 0,
        "meta_classification_type": "U",
        "meta_norad_cat_id": 31807,
        "meta_element_set_no": 999,
        "meta_rev_at_epoch": 65456,
        "meta_bstar": 0.00086617726,
        "meta_mean_motion_dot": 3.718e-05,
        "meta_mean_motion_ddot": 0,
        "tle_line1": "1 31807U 99025CGV 25357.12347672  .00003718  00000+0  86618-3 0  9998",
        "tle_line2": "2 31807  99.0777 128.9097 0105670 131.5185 229.5134 14.52113828654566"
      },
      "geometry": {
        "type": "Point",
        "coordinates": [
          -60.29653990849259,
          -48.98697670411066
        ]
      }
    },
    {
      "type": "Feature",
      "properties": {
        "norad_id": 31808,
        "name": "FENGYUN 1C DEB",
        "group": "fengyun-1c-debris",
        "lat": 28.59448762850551,
        "lon": 11.675886787192768,
        "alt_km": 682.487035172474,
        "timestamp": "2025-12-24T09:46:31.288305+00:00",
        "meta_object_name": "FENGYUN 1C DEB",
        "meta_object_id": "1999-025CGW",
        "meta_epoch": "2025-12-23T18:15:42.727680",
        "meta_mean_motion": 14.57649979,
        "meta_eccentricity": 0.00360443,
        "meta_inclination": 99.2023,
        "meta_ra_of_asc_node": 185.8922,
        "meta_arg_of_pericenter": 104.042,
        "meta_mean_anomaly": 256.4786,
        "meta_ephemeris_type": 0,
        "meta_classification_type": "U",
        "meta_norad_cat_id": 31808,
        "meta_element_set_no": 999,
        "meta_rev_at_epoch": 57763,
        "meta_bstar": 0.0044762957,
        "meta_mean_motion_dot": 0.00020596,
        "meta_mean_motion_ddot": 0,
        "tle_line1": "1 31808U 99025CGW 25357.76091120  .00020596  00000+0  44763-2 0  9990",
        "tle_line2": "2 31808  99.2023 185.8922 0036044 104.0420 256.4786 14.57649979577637"
      },
      "geometry": {
        "type": "Point",
        "coordinates": [
          11.675886787192768,
          28.59448762850551
        ]
      }
    },
    {
      "type": "Feature",
      "properties": {
        "norad_id": 31810,
        "name": "FENGYUN 1C DEB",
        "group": "fengyun-1c-debris",
        "lat": -39.36675396220931,
        "lon": -173.34356951984327,
        "alt_km": 807.072564456601,
        "timestamp": "2025-12-24T09:46:31.288318+00:00",
        "meta_object_name": "FENGYUN 1C DEB",
        "meta_object_id": "1999-025CGY",
        "meta_epoch": "2025-12-17T20:39:34.005600",
        "meta_mean_motion": 14.45854827,
        "meta_eccentricity": 0.0214524,
        "meta_inclination": 98.269,
        "meta_ra_of_asc_node": 7.1218,
        "meta_arg_of_pericenter": 124.8314,
        "meta_mean_anomaly": 237.3263,
        "meta_ephemeris_type": 0,
        "meta_classification_type": "U",
        "meta_norad_cat_id": 31810,
        "meta_element_set_no": 999,
        "meta_rev_at_epoch": 64488,
        "meta_bstar": 0.00038073485,
        "meta_mean_motion_dot": 1.748e-05,
        "meta_mean_motion_ddot": 0,
        "tle_line1": "1 31810U 99025CGY 25351.86081025  .00001748  00000+0  38073-3 0  9997",
        "tle_line2": "2 31810  98.2690   7.1218 0214524 124.8314 237.3263 14.45854827644883"
      },
      "geometry": {
        "type": "Point",
        "coordinates": [
          -173.34356951984327,
          -39.36675396220931
        ]
      }
    },
    {
      "type": "Feature",
      "properties": {
        "norad_id": 31813,
        "name": "FENGYUN 1C DEB",
        "group": "fengyun-1c-debris",
        "lat": -52.15503847883087,
        "lon": 91.65539683079035,
        "alt_km": 637.447660445283,
        "timestamp": "2025-12-24T09:46:31.288328+00:00",
        "meta_object_name": "FENGYUN 1C DEB",
        "meta_object_id": "1999-025CHB",
        "meta_epoch": "2025-12-19T04:08:07.148544",
        "meta_mean_motion": 14.4980422,
        "meta_eccentricity": 0.01359265,
        "meta_inclination": 99.4267,
        "meta_ra_of_asc_node": 73.4576,
        "meta_arg_of_pericenter": 314.58,
        "meta_mean_anomaly": 44.436,
        "meta_ephemeris_type": 0,
        "meta_classification_type": "U",
        "meta_norad_cat_id": 31813,
        "meta_element_set_no": 999,
        "meta_rev_at_epoch": 97349,
        "meta_bstar": 0.0003332184,
        "meta_mean_motion_dot": 1.382e-05,
        "meta_mean_motion_ddot": 0,
        "tle_line1": "1 31813U 99025CHB 25353.17230496  .00001382  00000+0  33322-3 0  9990",
        "tle_line2": "2 31813  99.4267  73.4576 0135926 314.5800  44.4360 14.49804220973491"
      },
      "geometry": {
        "type": "Point",
        "coordinates": [
          91.65539683079035,
          -52.15503847883087
        ]
      }
    },
    {
      "type": "Feature",
      "properties": {
        "norad_id": 31814,
        "name": "FENGYUN 1C DEB",
        "group": "fengyun-1c-debris",
        "lat": -43.051544397004555,
        "lon": -140.8966554142808,
        "alt_km": 883.3935990264263,
        "timestamp": "2025-12-24T09:46:31.288339+00:00",
        "meta_object_name": "FENGYUN 1C DEB",
        "meta_object_id": "1999-025CHC",
        "meta_epoch": "2025-12-20T22:05:52.017216",
        "meta_mean_motion": 13.66483356,
        "meta_eccentricity": 0.0230189,
        "meta_inclination": 99.5707,
        "meta_ra_of_asc_node": 44.7236,
        "meta_arg_of_pericenter": 194.5646,
        "meta_mean_anomaly": 164.8789,
        "meta_ephemeris_type": 0,
        "meta_classification_type": "U",
        "meta_norad_cat_id": 31814,
        "meta_element_set_no": 999,
        "meta_rev_at_epoch": 61911,
        "meta_bstar": 0.00045515,
        "meta_mean_motion_dot": 4.08e-06,
        "meta_mean_motion_ddot": 0,
        "tle_line1": "1 31814U 99025CHC 25354.92074094  .00000408  00000+0  45515-3 0  9990",
        "tle_line2": "2 31814  99.5707  44.7236 0230189 194.5646 164.8789 13.66483356619116"
      },
      "geometry": {
        "type": "Point",
        "coordinates": [
          -140.8966554142808,
          -43.051544397004555
        ]
      }
    }
  ]
}